,name,area,address,latitude,longitude,naver_store_type
0,Battered Sole,이태원,서울특별시 용산구 이태원동 118-9,37.535032,126.991664,
1,Chakyoung,달맞이길,부산광역시 해운대구 중2동 1509-5,35.158587,129.175004,양식
2,Gogoss Pub,하남,경기도 하남시 덕풍동 412-18,37.539046,127.203933,"맥주,호프"
3,Madeleine,만촌동,대구광역시 수성구 만촌1동 1356-7,35.869088,128.63605800000002,베이커리
4,T원,신촌,서울특별시 서대문구 창천동 30-33,37.556074,126.935798,
5,국수이야기,월곶,경기도 시흥시 월곶동 1006-3,37.3887,126.74,
6,깐부치킨,역삼역,서울특별시 강남구 역삼동 644-10,37.501543,127.035068,"치킨,닭강정"
7,모이바바,수영역,부산광역시 수영구 광안동 116-4,35.1627,129.115,
8,미랑,유성,대전광역시 유성구 상대동 469-4,36.34727,127.339326,
9,써리힐,전포동,부산광역시 부산진구 전포동  229-13번지 2층,35.155521,129.067316,양식
10,진삼미 샌드위치,전주,전라북도 전주시 완산구 효자동1가 652 상산고등학교앞,35.803488,127.115123,샌드위치
11,&So You,가로수길,경상남도 창원시 의창구 용호동 18-12,35.236166,128.685105,
12,(사)한국신체장애인복지회,율동,경기도 성남시 분당구 율동 318,37.382087,127.150935,
13,(주)다우린 화로닭발,사동,경기도 안산시 상록구 사동 1475,37.278109,126.849366,
14,(주)맛있는 상상,처인구,경기도 용인시 처인구 포곡읍 금어리 106-1,37.290841,127.268459,
15,(주)쥬노FNC 카페네스카페,한남동,서울특별시 용산구 한남동 743-29,37.5374,127.0,
16,(주)호미,약대동,경기도 부천시 약대동 144-45,37.511136,126.770565,
17,007반점,노원동3가,대구광역시 북구 노원동3가 227-7,35.896047,128.569837,
18,007반점,노원동3가,대구광역시 북구 노원동3가 384-1,35.893133,128.563175,
19,007보리밥,비산동,대구광역시 서구 비산동 1240-1,35.88692899999999,128.56358400000002,한식
20,007식당,영광,전라남도 영광군 법성면 법성리 1148-6,35.35554600000001,126.44988700000002,"해물,생선요리"
21,010수산,발산역,서울특별시 강서구 등촌동 671-3,37.5591,126.842,
22,012촌밥집,화목동,경상남도 김해시 화목동 1055-11,35.210056,128.851311,한식
23,131,대전,대전광역시 서구 가수원동 1029,36.3057,127.35,실용음악학원
24,01디자인,사근동,서울특별시 성동구 사근동 190-9,37.560322,127.048729,
25,02샌드위치,순천,전라남도 순천시 조례동 1594,34.9539,127.523,샌드위치
26,304,동성로,대구광역시 중구 덕산동 124-26,35.8663,128.595,스터디카페
27,031COFFEE,소흘읍,경기도 포천시 소흘읍 송우리 729-4,37.829658,127.140963,카페
28,032 닭강정,역곡,경기도 부천시 역곡동 109,37.4879,126.812,"치킨,닭강정"
29,033터그,원주,강원도 원주시 단계동 842 지하,37.347362,127.932211,
30,03수제비칼국수,방배동,서울특별시 서초구 방배동 768-2,37.495087,126.985301,
31,03인앤아웃,연희동,서울특별시 서대문구 연희동 126-2,37.568857,126.928738,샌드위치
32,041프로젝트,두정동,충청남도 천안시 서북구 두정동 892,36.8322,127.135,요리주점
33,0430 국물닭갈비,마산,경상남도 창원시 마산합포구 홍문동 16-3,35.182722,128.55883400000002,
34,04Pan,청라,인천광역시 서구 연희동 798-2,37.548976,126.678194,
35,04위로,울산대,울산광역시 남구 무거동 628-26,35.54190399999999,129.261078,양식
36,04튀김천국,진해,경상남도 창원시 진해구 경화동 906-16,35.156711,128.690374,종합분식
37,04하우스,송내역,경기도 부천시 원미구 상동 411,37.49018,126.752903,패밀리레스토랑
38,051 우리동네,해운대,부산광역시 해운대구 우동 655-9,35.160451,129.154354,
39,053키친,대구,대구광역시 중구 완전동 5-15,35.872716,128.598477,
40,05식당,구로디지털단지,서울특별시 구로구 구로동 212-8,37.483691,126.895442,한식
41,064바당,표선,제주특별자치도 서귀포시 표선면 세화리 291-1,33.305326,126.80657,생선회
42,072 정육식당,백석동,인천광역시 서구 백석동 85,37.584075,126.670097,정육식당
43,0807과자점,광주,광주광역시 남구 백운동 588-24,35.1364,126.908,케이크전문
44,082네,장항동,경기도 고양시 일산동구 장항동 746-1,37.663474,126.764247,
45,09264커피&amp;갤러리,매호동,대구광역시 수성구 매호동 1058-2,35.843296,128.709532,카페
46,095베이커리,화도읍,경기도 남양주시 화도읍 가곡리 169-41,37.680101,127.302668,베이커리
47,09바다장어,월곡동,광주광역시 광산구 월곡동 680-3,35.1794,126.809,"장어,먹장어요리"
48,09순대국밥,청송,경상북도 청송군 청송읍 월막리 484-26,36.434432,129.061002,한정식
49,09학번식당,천안,충청남도 천안시 동남구 안서동 241-15,36.830532,127.17582,
50,0라이브,경안동,경기도 광주 경안동 52-3,37.410126,127.257378,
51,0번가든,도봉동,서울특별시 도봉구 도봉동 411-1,37.686566,127.038024,
52,0시실내포장,하남읍,경상남도 밀양시 하남읍 수산리 748-2,35.375294,128.70684599999998,
53,0심이실내포차,신월동,서울특별시 양천구 신월동 148-6,37.535527,126.827453,
54,1.5닭갈비,춘천,강원도 춘천시 후평3동 801-13,37.876395,127.753096,닭갈비
55,10 PIPE,삼송,경기도 고양시 덕양구 원흥동 186-1,37.647176,126.874364,"카페,디저트"
56,10 꼬르소꼬모 카페,청담,서울특별시 강남구 청담동 79  Trinity 빌딩 지하 1층,37.526917,127.042419,종합패션
57,100 Sheets,대흥,대전광역시 중구 대흥동 409-17,36.3251,127.425,"카페,디저트"
58,1000냥 노가리비어,다대포,부산광역시 사하구 다대동 933-15,35.057839,128.970277,
59,1000원노가리&호프,일산,경기도 고양시 덕양구 행신동 175-5,37.6197,126.844,
60,1003디저트카페,담양,전라남도 담양군 담양읍 학동리 528,35.320721,127.004678,"카페,디저트"
61,1004네 떡갈비,율정동,경기도 양주시 율정동 120-22,37.819223,127.10467,한식
62,1004임자도횟집,괴안동,경기도 부천시 괴안동 108-6,37.482738,126.811292,생선회
63,1004화로구이,평거동,경상남도 진주시 평거동 726-3,35.169062,128.052647,돼지고기구이
64,1004화로구이,진주,경상남도 진주시 이현동 11-65,35.1924,128.062,돼지고기구이
65,1005 돈까츠,천호동,서울특별시 강동구 천호동 232-11,37.546919,127.135399,
66,100년건강장수추어탕,소사동,경기도 부천시 소사본동 156-7,37.476404,126.798193,추어탕
67,100년사골짬뽕,마평동,경기도 용인시 처인구 마평동 695-7,37.237461,127.214294,중식당
68,100년서서갈비,수유,서울특별시 강북구 미아동 158-10,37.63466500000001,127.025653,"육류,고기요리"
69,100년설렁탕,삼선교,서울특별시 성북구 삼선동2가 38,37.588057,127.009903,"곰탕,설렁탕"
70,100년전통초당순두부,강릉,강원 강릉시 운정동 333,37.786511,128.891968,두부요리
71,100년황태,처인구,경기도 용인시 처인구 718,37.19615,127.207629,"해물,생선요리"
72,100번24시순대돼지국밥,중방동,경상북도 경산시 중방동 231-1,35.832589,128.73394,국밥
73,100번식당,안동,경상북도 안동시 옥동 791-2,36.562885,128.702218,한식
74,100번지 연탄구이,동탄,경기도 화성시 752-3,37.20291,127.124339,한식
75,100번지연탄구이,신당동,서울특별시 중구 신당동 292-152,37.563315,127.016428,"육류,고기요리"
76,100번지연탄구이,공릉동,서울특별시 노원구 공릉동 393-5,37.6262,127.075,한식
77,100번회센타,장성,경상북도 포항시 북구 장성동 1551-8,36.07859000000001,129.38269,"해물,생선요리"
78,100브랜드,강릉,강원 강릉시 회산동 500,37.7395,128.864,브런치
79,100세곱창,정왕동,경기도 시흥시 정왕동 1855-17,37.352158,126.722813,"곱창,막창,양"
80,100세시대추어매운탕,화성시,경기도 화성시,37.211371,126.85467,
81,100세영양탕,연산9동,부산광역시 연제구 연산9동 478-36,35.18538,129.107776,"사철,영양탕"
82,100억곱창,강서구청,서울특별시 강서구 화곡6동 986-22,37.549866,126.847604,"곱창,막창,양"
83,100억알곱창,김포,경기도 김포시 구래동 6882-14,37.644,126.625,"곱창,막창,양"
84,100족발,사당역,서울특별시 동작구 사당동 1041-28 1층,37.47765,126.984108,"족발,보쌈"
85,100족발삶는집,첨단,광주광역시 광산구 월계동 891-4,35.2146,126.846,"족발,보쌈"
86,100퍼센트 자연산 산꼼장어,한성대,서울특별시 성북구 삼선동1가 75,37.587769,127.008696,한식
87,100프로구은닭,명일동,서울특별시 강동구 명일동 248-1,37.548875,127.15309,
88,100회,성수동,서울특별시 성동구 성수동1가 72-100,37.540695,127.048623,생선회
89,1010 감동국수,일산,경기도 고양시 일산서구 대화동 2124-3,37.679246,126.755593,국수
90,1010포르테스,,서울특별시 강남구 삼성동,37.513758,127.0643,
91,1011다이닝키친,봉선동,광주광역시 남구 봉선동 1011-20,35.127533,126.909333,이탈리아음식
92,1013coffee,봉곡동,경상남도 진주시 봉곡동 487-12,35.19483599999999,128.070808,카페
93,101동파스타,함덕,제주특별자치도 제주시 조천읍 함덕리 272-35,33.540678,126.673417,
94,101번지 남산돈까스,용인수지,경기도 용인시 수지구 성복동 23 롯데몰수지점 4층,37.313099,127.080768,101번지남산돈까스
95,101번지 남산돈까스,남산,서울특별시 중구 남산동2가 49-24,37.556959,126.985722,101번지남산돈까스
96,101번지남산돈까스,센트럴시티,서울특별시 서초구 반포동 19-3,37.50450900000001,127.004733,101번지남산돈까스
97,101번지남산돈까스,수원,경기도 수원시 팔달구 인계동 1125-1 갤러리아백화점수원점 지하 푸드코트,37.260953,127.032237,101번지남산돈까스
98,101번지남산돈까스,인사동,서울시 종로구 관훈동 155-2 2층,37.574554,126.983794,101번지남산돈까스
99,101번지남산돈까스,천호동,서울특별시 강동구 천호동 455-8,37.538868,127.124459,101번지남산돈까스
100,101번지남산돈까스,가산디지털단지,서울특별시 금천구 가산동 60-8 현대시티아울렛 7층,37.4776,126.889,101번지남산돈까스
101,101번지남산돈까스,명동,서울특별시 중구 수하동 67 지하1층,37.567334,126.985177,101번지남산돈까스
102,101번지남산돈까스,가든파이브,서울특별시 송파구 문정동 634,37.4777,127.125,101번지남산돈까스
103,101스튜디오,도곡,서울특별시 강남구 도곡동 450,37.482387,127.044172,
104,101커피,가락동,서울특별시 송파구 가락동 41-1,37.49995,127.122863,
105,101커피 컨테이너,인계동,경기도 수원시 팔달구 인계동 1116-1,37.265716,127.036734,
106,101커피컨테이너,논현동,서울특별시 강남구 삼성동 140-3,37.506595,127.048342,
107,101커피컨테이너,약수,서울특별시 중구 신당동 353-97,37.552957,127.008722,101커피컨테이너
108,101커피컨테이너,청계산,서울특별시 서초구 원지동 419-22,37.44345,127.055691,
109,101커피컨테이너,속초관광수산시장,강원도 속초시 124,38.205029,128.58999,101커피컨테이너
110,101커피컨테이너,전농동,서울특별시 동대문구 전농동 10,37.576641,127.060465,101커피컨테이너
111,101커피컨테이너,서초동,서울특별시 서초구 서초동 1720-7,37.493061,127.007726,101커피컨테이너
112,101커피컨테이너,마장면,경기도 이천시 마장면 해월리 365-5,37.219,127.342057,101커피컨테이너
113,101피자,파주,경기도 파주시 목동동 1101-2,37.7199,126.738,
114,102 짬뽕,김해,경상남도 김해시 외동 557,35.229757,128.86198000000002,중식당
115,1023수제햄부대찌개,동탄,경기도 화성시 석우동 3-1,37.224885,127.073307,"찌개,전골"
116,1023양과점,군자,서울특별시 광진구 군자동 125-119,37.55302800000001,127.071107,
117,1024,이태원,서울특별시 용산구 한남동 683-141,37.536448,127.000516,"네일아트,네일샵"
118,102베이커리,화곡역,서울특별시 강서구 화곡동 1073-10,37.540597,126.837569,베이커리
119,102춘천닭갈비,울산,울산광역시 남구 달동 135-1,35.53491,129.32414599999998,닭갈비
120,102커피,삼척,강원도 삼척시 남양동 346-5,37.442098,129.17103,"카페,디저트"
121,102테이블,향남,경기도 화성시 향남읍 하길리 1462,37.117646,126.914755,
122,102트리,고대,서울특별시 성북구 안암동5가 102-95,37.585358,127.028989,카페
123,102포장마차,비산동,대구광역시 서구 비산동 529-1,35.87827700000001,128.571658,
124,102하우스,향남,경기도 화성시 향남읍 행정리 432-11,37.131063,126.917772,
125,1030와규와돈,농서동,경기도 용인시 기흥구 농서동 443-1,37.232902,127.071295,
126,103LAB 카페,묵호진동,강원도 동해시 묵호진동 2-352,37.55321,129.11745,"카페,디저트"
127,103과자점,목포,전라남도 목포시 양동 86-22,34.795821000000004,126.384608,"카페,디저트"
128,103포차,다사,대구광역시 달성군 다사읍 세천리 1593-2,35.8729,128.477,포장마차
129,1058면,하양,경상북도 경산시 하양읍 금락리 132-22,35.911,128.816,일본식라면
130,105pasta,이매,경기도 성남시 분당구 이매1동 115-1,37.395031,127.125626,양식
131,107,조원동,경기도 수원시 장안구 조원동 510,37.296654,127.021523,
132,107page,구미,경상북도 구미시 봉곡동 56-2,36.1586,128.306,"카페,디저트"
133,1080떡볶이,건건동,경기도 안산시 상록구 건건동 632-4,37.304574,126.900698,분식
134,1080호프,홍제동,강원도 강릉시 홍제동 152-15,37.752302,128.881974,
135,108@돌삼겹,탄현,경기도 고양시 일산서구 탄현동 1592-1,37.693269,126.772582,한식
136,108궁돌찜,일산,경기도 고양시 일산서구 탄현동 1592-1,37.693279,126.772619,"아귀찜,해물찜"
137,108호점 닭갈비,이충동,경기도 평택시 이충동 611-1,37.051795,127.05631,
138,109제면소,울산,울산광역시 북구 진장동 284-21,35.57506,129.35741000000002,중식당
139,109퓨전포차,송학동,경상남도 창원시 진해구 송학동 52-31,35.150655,128.66578,요리주점
140,109하우스,강화도,인천광역시 강화군 양도면 건평리 655-23,37.679211,126.400124,"카페,디저트"
141,10E,군산,전라북도 군산시 수송동 828-1,35.969122,126.716757,
142,10G,여의도,서울특별시 영등포구 여의도동 23-1,37.52555,126.926604,"카페,디저트"
143,10꼬르소꼬모,명동,서울특별시 중구 소공동 7,37.5642,126.982,종합패션
144,10막창,종로,서울특별시 종로구 돈의동 102,37.571744,126.99061,"곱창,막창,양"
145,10번가고깃집,불당동,충청남도 천안시 서북구 불당동 1813,36.807604,127.10560900000002,
146,10번야식,동호동,대구광역시 동구 동호동 382-2,35.865057,128.723213,
147,10번지식당,동면,경상남도 양산시 동면 여락리 115-19,35.306219,129.107103,종합분식
148,10억분식,금광동,경기도 성남시 중원구 금광동 681,37.442606,127.165756,
149,10월1일,서촌,서울특별시 종로구 체부동 94,37.57791,126.971047,이자카야
150,10층한우,서울,서울특별시 중구 황학동 2153,37.570328,127.023191,소고기구이
151,10평파스타,망원동,서울시 마포구 망원동 494 삼성화원아파트 상가동 104호,37.557439,126.906657,"스파게티,파스타전문"
152,10호 영성호,,강원도 속초시 장사동,38.226454,128.588061,
153,11-14번지 캐주얼펍,종로,서울특별시 종로구 관철동 11-14,37.568676,126.985855,요리주점
154,1105,여수,전라남도 여수시 문수동 152,34.754402,127.70358,돼지고기구이
155,1105다이닝,장성,전라남도 장성군 삼계면 사창리 70 상무대 쇼핑타운2층,35.25925,126.672684,양식
156,1108,향남,경기도 화성시 향남읍 하길리 1463-5,37.1165,126.915,
157,110양꼬치,대림역,서울특별시 영등포구 대림동 809,37.493933,126.895506,양꼬치
158,111 7meal,어은동,대전광역시 유성구 어은동 111-7 1층,36.363927,127.357923,일식당
159,111커피,태전동,대구광역시 북구 태전동 1040-9,35.927176,128.548281,"카페,디저트"
160,111커피,이동면,경기도 포천시 이동면 장암리 242-16,38.031693,127.36634,
161,112-6 라운지,이태원,서울시 용산구 이태원동 112-6 3F,37.535129,126.994279,
162,1158족욕카페,애월,제주특별자치도 제주시 애월읍 고내리 1158,33.4671,126.337,테마카페
163,117파크,광화문,서울특별시 종로구 신문로2가 1-117,37.571668,126.9707,
164,11818다이닝,강남구청역,서울특별시 강남구 논현동 118-18,37.517232,127.039231,요리주점
165,1183숯불갈비,유성구,대전광역시 유성구 관평동 1183,36.422771,127.394326,"육류,고기요리"
166,118COFFEE,서촌,서울특별시 종로구 옥인동 153-1,37.5808,126.967,카페
167,119 떡볶이,심곡동,경기도 부천시 심곡동 490-129,37.483649,126.789974,분식
168,119낙면야족,장평동,경상남도 거제시 장평동 346-66,34.893390000000004,128.605172,"족발,보쌈"
169,119닭갈비,춘천,강원도 춘천시 퇴계동 968-6,37.858418,127.738304,닭갈비
170,119닭갈비,단구동,강원도 원주시 단구동 1673-13,37.320534,127.957779,닭갈비
171,119닭갈비,제천,충청북도 제천시 장락동 613,37.157749,128.22371299999998,닭갈비
172,119닭발,천호동,서울특별시 강동구 천호2동 307-9,37.544978,127.130116,닭발
173,119닭발,거여동,서울특별시 송파구 거여동 22-11,37.494,127.143924,
174,119반점,평거동,경상남도 진주시 평거동 773-3,35.172843,128.065342,중식당
175,119불닭발,신동면,강원도 철원군 갈말읍 신철원리 710-10,38.145395,127.310668,
176,119불닭발,북부동,경상남도 양산시 북부동 689-1,35.3477,129.039,야식
177,119불닭발,구미,경상북도 구미시 진평동 149-10,36.0918,128.428,닭발
178,119불닭발,망정동,경상북도 영천시 망정동 417-15,35.986488,128.956329,
179,119불닭발,,경상북도 칠곡군 석적읍 중리,36.078274,128.412775,
180,119불닭발,생연동,경기도 동두천시 생연동 613-105,37.906807,127.055862,
181,119불닭발,중부동,경상남도 양산시 중부동 710-1,35.33534,129.02685,
182,119불닭발,구미,경상북도 구미시 임은동 437-30,36.089752,128.35898999999998,닭발
183,119불짬뽕,역곡,경기도 부천시 역곡동 108-5,37.488677,126.813053,중식당
184,119소돼지갈비찜전문점,범어동,대구광역시 수성구 범어동 18-10,35.863619,128.625444,
185,119양푼이,우만동,경기도 수원시 팔달구 우만동 58-27,37.28,127.043,한식
186,119엽기떡볶이,공도읍,경기도 안성시 공도읍 만정리 804-7,37.001145,127.169632,
187,119엽기떡볶이,안성,경기도 안성시 당왕동 551-5,37.013719,127.264853,
188,119엽떡볶이,진안동,경기도 화성시 진안동 860-10,37.215207,127.038316,떡볶이
189,119직구신불닭,처인구,경기도 용인시 처인구 포곡읍 전대리 184-6,37.283523,127.218647,
190,119호프치킨,퇴계원면,경기도 남양주시 퇴계원면 퇴계원리 80-2,37.656038,127.144261,
191,11국수,봉곡동,경상남도 진주시 봉곡동 471-5,35.194426,128.07263500000002,막국수
192,11남매떡볶이,마산,경상남도 창원시 마산합포구 부림동 49-9,35.2057,128.57399999999998,종합분식
193,11맨션,당진,충청남도 당진시 시곡동 53-6 O동 2층,36.903693,126.68299,
194,11번가,청주,충청북도 청주시 상당구 내덕2동 165-71,36.65774,127.49169,
195,11번가커피,의정부2동,경기도 의정부시 의정부2동 564-9,37.73365,127.043244,
196,11번가호프,광명동,경기도 광명시 광명동 158-460,37.476679,126.856533,
197,11번길,김해,경상남도 김해시 관동동 1081-1,35.176336,128.80957800000002,요리주점
198,11번횟집,죽도동,경상북도 포항시 북구 죽도동 557-7,36.036336,129.369424,생선회
199,11월,내촌면,경기도 포천시 내촌면 소학리 144-1,37.816187,127.260781,
200,11월11일,진주,경상남도 진주시 중안동 2-11,35.1949,128.08100000000002,
201,11월29일,부산대,부산광역시 금정구 장전동 302-10,35.229182,129.087289,"카페,디저트"
202,11월의 발자국,부천,경기도 부천시 중동 595-9,37.496831,126.764879,"카페,디저트"
203,11자리,서면,부산광역시 부산진구 부전동 524-40,35.153884000000005,129.055924,바(BAR)
204,11체스터필드웨이,경주,경상북도 경주시 성건동 620-495,35.855766,129.20511000000002,
205,11호 남도 할머니 칼국수,대부도,경기도 안산시 단원구 대부북동 1837-29,37.2702,126.571,"칼국수,만두"
206,11호 횟집,안산,경기도 안산시 단원구 선감동 680,37.204998,126.64547,생선회
207,12 바,홍대,서울시 마포구 서교동 403-21,37.549094,126.920103,바(BAR)
208,1204카페,여수,전라남도 여수시 여서동 227-4,34.752759999999995,127.704881,
209,123 최유강 중국집,삼성동,서울특별시 강남구 대치동 891-52,37.504718,127.054653,
210,1234즉떡,동탄,경기도 화성시 반송동 44-1,37.208613,127.061389,떡볶이
211,123돼지부속,,강원도 원주시 개운동,37.33163,127.950795,
212,123돼지부속,문막,강원도 원주시 문막읍 동화리 1538-2,37.324326,127.830605,돼지고기구이
213,123돼지부속,원주,강원도 원주시 태장2동 1341-25,37.38303,127.95414,돼지고기구이
214,123돼지부속,원주,강원도 원주시 인동 25-13,37.34682100000001,127.953539,돼지고기구이
215,123막창,둔산동,대전광역시 서구 둔산동 1848,36.351048,127.399899,123막창
216,123막창,약사동,울산광역시 중구 약사동 625-22,35.568468,129.342076,"곱창,막창,양"
217,123막창,서면,부산광역시 242-33,35.154649,129.05803400000002,
218,123막창,울산,울산광역시 북구 호계동 254-9,35.629596,129.352982,123막창
219,123막창,서창,경상남도 양산시 삼호동 1005-3,35.4151,129.16841100000002,123막창
220,123막창,진해,경상남도 창원시 진해구 석동 180-12,35.152705,128.703453,123막창
221,123막창,성건동,경상북도 경주시 성건동 696,35.853894,129.205925,123막창
222,123막창,일광면,부산광역시 기장군 기장읍 동부리 155-15,35.24755800000001,129.216206,"곱창,막창,양"
223,123막창,명촌,울산광역시 북구 진장동 808-2,35.556507,129.35635,123막창
224,123막창,삼산,울산광역시 남구 삼산동 1476-9,35.536926,129.336931,한식
225,123반점,물금읍,경상남도 양산시 물금읍 범어리 789,35.329256,129.00378600000002,중식당
226,123삼계탕,항남동,경상남도 통영시 항남동 228-5,34.842163,128.42230800000002,
227,123생선구이,수택동,경기도 구리시 수택동 376-14,37.598021,127.137068,생선구이
228,123식당,,경상북도 경주시 양북면 어일리,35.792927,129.441769,
229,123식당,백석동,경기도 고양시 일산동구 백석동 1314,37.639584,126.790265,"맥주,호프"
230,123포차,본오동,경기도 안산시 상록구 본오동 771-10,37.294112,126.8755,
231,123회관,항남동,경상남도 통영시 항남동 228-5,34.842187,128.422323,
232,123회센타,신월동,경상남도 창원시 의창구 신월동 68-11,35.227719,128.69146,생선회
233,123회센타,수원인계동,경기도 수원시 팔달구 인계동 977,37.26841,127.025635,
234,123회포차,구월동,인천시 남동구 구월3동 1369-15,37.447431,126.696804,
235,123횟집,태인동,전라남도 광양시 태인동 1320-41,34.942667,127.741557,
236,123횟집,안산,경기도 안산시 상록구 일동 118-13,37.310881,126.86634,생선회
237,124번가,마도면,경기도 화성시 마도면 슬항리 220-124,37.202599,126.766759,베이커리
238,124번지삼겹살&amp;동치미국수,곤지암읍,경기도 광주 곤지암읍 곤지암리 488-2,37.341351,127.33842,오리요리
239,1250,전주,전라북도 전주시 완산구 효자동2가 1309-2,35.8106,127.095,이자카야
240,1250오뎅,전주,전라북도 전주시 완산구 효자동2가 1309-2,35.81062700000001,127.095358,"오뎅,꼬치"
241,1253타르트,동천동,경기도 용인시 수지구 동천동 883-11,37.333596,127.096166,베이커리
242,125coffee,후포,경상북도 울진군 후포면 삼율리 282-3,36.678113,129.44176000000002,
243,126street,송도,인천광역시 연수구 송도동 22-22,37.392751,126.645782,바(BAR)
244,129 라멘하우스,신당동,서울특별시 중구 신당동 374-27,37.5554,127.011,일본식라면
245,12st,가산동,서울특별시 금천구 가산동 140-38,37.47793,126.889675,테이크아웃커피
246,12달이야기,청룡동,부산광역시 금정구 청룡동 58-1,35.275027,129.090692,
247,12번가,구로디지털단지역,서울특별시 관악구 조원동 1654-3,37.483326,126.903183,테이크아웃커피
248,12번지,홍대,서울특별시 마포구 서교동 402-12 2층,37.548828,126.919984,
249,12번지포차,부개역,경기도 부천시 상동 614-4,37.490078,126.742557,
250,12번째키친,광주,광주광역시 동구 불로동 120-1,35.145911,126.916208,
251,12보쌈,신평동,부산광역시 사하구 신평동 45-11,35.091297,128.979516,"족발,보쌈"
252,12시30분,목포,전라남도 목포시 상동 508-9,34.809157,126.415781,
253,12안젤로,원주,강원도 원주시 단계동 1115-3,37.347786,127.926871,카페
254,12온스,성수역,서울특별시 성동구 성수2가3동 289-273,37.546024,127.054212,
255,12월32일,심곡동,경기도 부천시 심곡동 167-2,37.486764,126.784198,
256,12인치,신둔면,경기도 이천시 신둔면 고척리 553-2,37.293446,127.382663,"카페,디저트"
257,12호횟집,대부도,경기도 안산시 단원구 선감동 680-4,37.210026,126.65048,생선회
258,13,김해,경상남도 김해시 관동동 1111-13,35.176012,128.815755,
259,1308,전주,전라북도 전주시 완산구 효자동2가 1308-12,35.810287,127.094832,
260,130애비뉴,계산동,인천광역시 계양구 계산동 990-3,37.537153,126.726631,양식
261,1318김밥짱,중동,경기도 부천시 중동 733-16,37.49426,126.762938,종합분식
262,132에비뉴,고령,대구광역시 달서구 호산동 707-3,35.8441,128.487,"카페,디저트"
263,1357 철판삼겹,사당역,서울시 서초구 방배동 451-4,37.478797,126.983396,돼지고기구이
264,135튀김집,사직동,부산광역시 동래구 사직동 46-17,35.1979,129.06,
265,135튀김집,불당동,충청남도 천안시 서북구 불당동 1544,36.814251,127.105821,"일식튀김,꼬치"
266,135튀김집,세종시,세종특별자치시 새롬동 341-74,36.484474,127.252608,135튀김집
267,135튀김집,남포동,부산광역시 중구 광복동1가 30-3,35.0989,129.035,한식
268,135튀김집,보람동,세종특별자치시 보람동 615-2,36.483276,127.293255,
269,135튀김집,의정부동,경기도 의정부시 의정부동 168-54,37.738031,127.046542,"일식튀김,꼬치"
270,136길 육미,논현동,서울특별시 강남구 논현동 107-34,37.517393,127.036351,한식
271,13스시,충주,충청북도 충주시 대소원면 완오리 1121,36.99896,127.840555,"초밥,롤"
272,13애비뉴,성남,경기도 성남시 수정구 심곡동 327-2,37.449274,127.103793,이탈리아음식
273,13월의식당,두산동,대구광역시 수성구 두산동 88-4,35.83781,128.621674,
274,13창고,연곡면,강원도 강릉시 연곡면 영진리 353-17,37.869348,128.83858600000002,
275,01월 14일,신흥3동,경기도 성남시 수정구 신흥3동,37.443488,127.148813,
276,145,포항,경상북도 포항시 북구 환호동 145,36.072914,129.404984,브런치
277,149플라밍고,광교,경기도 수원시 영통구 하동 960,37.293931,127.071104,양식
278,14번가비어,북신동,경상남도 통영시 북신동 693,34.858017,128.424678,
279,14번길레스토랑,유성,대전광역시 유성구 봉명동 537-2,36.356834,127.344548,이탈리아음식
280,14일의 설레임,신월동,서울특별시 양천구 신월동 513-15,37.52159,126.843673,돼지고기구이
281,15,목원대,대전광역시 유성구 원신흥동 575-12,36.333803,127.337946,감자탕
282,1500수제돈까스,마전동,인천광역시 서구 마전동 933-3,37.602845,126.658699,돈가스
283,1500짜장집,전주,전라북도 전주시 완산구 삼천동1가 625-1,35.79698,127.12403,중식당
284,150만세 떡갈비,대신동,대구광역시 중구 대신동 115-378,35.868879,128.58076200000002,
285,153 포인츠부대찌개,명지대,경기도 용인시 처인구 역북동 598-3,37.22920300000001,127.188304,"찌개,전골"
286,153e참치,망월동,경기도 하남시 망월동 1117,37.56155,127.19303,생선회
287,153곱창,장지동,경기도 광주 장지동 686-2,37.393132,127.232908,"곱창,막창,양"
288,153김밥,외동,경상남도 김해시 외동 703-3,35.233846,128.851845,분식
289,153남매카페,,인천광역시,37.440503,126.674174,
290,153냉면,괴안동,경기도 부천시 괴안동 36,37.479366,126.804158,
291,153닭갈비,보정동,경기도 용인시 기흥구 보정동 901-12,37.303418,127.098852,닭갈비
292,153만나,부발읍,경기도 이천시 부발읍 아미리 733-1,37.253258,127.490013,
293,153민보아구찜,삼정동,경상남도 김해시 삼정동 209-6,35.23257299999999,128.894666,
294,153부대찌개,군산,전라북도 군산시 옥서면 선연리 1754-10,35.92147199999999,126.631685,한식
295,153분식,방촌동,대구광역시 동구 방촌동 925-35,35.884149,128.664475,떡볶이
296,153분식,오산동,경기도 오산시 오산동 846-1,37.152692,127.07043600000002,분식
297,153생선구이&amp;조림,안중읍,경기도 평택시 안중읍 현화리 848-14,36.984141,126.925614,한식
298,153샤브샤브칼국수,대관령,강원도 평창군 대관령면 용산리 251-12,37.663883,128.66343600000002,샤브샤브
299,153설농탕,내촌면,경기도 포천시 내촌면 진목리 313-2,37.811132,127.210049,"곰탕,설렁탕"
300,153순대,,강원도 원주시 문막읍 건등리,37.318616,127.830549,
301,153영양탕,,서울특별시 양천구 신정4동,37.527554,126.858852,
302,153오리주물럭,,세종특별자치시 조치원읍 남리,36.598309,127.301505,
303,153일산회,백석동,경기도 고양시 일산동구 백석동 1308,37.642132,126.78776299999998,생선회
304,153족발보쌈,경산,경상북도 경산시 중방동 491-2,35.82520200000001,128.73512,
305,153청해,연산,부산광역시 연제구 연산동 622-8,35.1862,129.086,한식
306,153춘천닭갈비,기안동,경기도 화성시 기안동 338-3,37.226074,126.972365,
307,153코다리네,팽성읍,경기도 평택시 팽성읍 원정리 120-19,36.969428,127.041454,한식
308,153코다리네(),포승읍,경기도 평택시 포승읍 도곡리 1117-2,36.990123,126.84316499999998,"해물,생선요리"
309,153콩나물국밥,건대,서울특별시 광진구 자양동 226-6,37.53856500000001,127.076243,한식
310,153포인츠,이천,경기도 이천시 마장면 각평리 319,37.241745,127.390725,"찌개,전골"
311,153포인츠,동탄,경기도 화성시 능동 1100-2,37.21570300000001,127.055515,"찌개,전골"
312,153포인츠,용인,경기도 용인시 처인구 고림동 246-1,37.248627,127.23436,"찌개,전골"
313,153포인츠 부대찌개,보정동,경기도 용인시 기흥구 보정동 1265-4,37.320251,127.115022,"찌개,전골"
314,153포인츠 부대찌개,일산,경기도 고양시 일산동구 백석동 1242,37.643178000000006,126.789662,"찌개,전골"
315,153한방삼계탕,용현동,인천광역시 남구 용현5동 622-25,37.454417,126.63715,"백숙,삼계탕"
316,153한식부페,대곶면,경기도 김포시 대곶면 석정리 45-23,37.679214,126.572953,
317,153한식뷔페,사노동,경기도 구리시 사노동 209-5,37.632786,127.140765,
318,153한탄강민물매운탕,후암동,서울특별시 용산구 후암동 116-10,37.549541,126.975968,"매운탕,해물탕"
319,153함가네국밥,엄사면,충청남도 계룡시 엄사면 엄사리 283-4,36.288302,127.244003,한식
320,153해물횟집,울산대,울산광역시 울주군 서생면 진하리 69-2,35.388847,129.345666,생선회
321,153해장국,일죽,경기도 안성시 일죽면 화봉리 719-2,37.061108,127.4755,"매운탕,해물탕"
322,153황소고집,장호원읍,경기 이천시 장호원읍 이황리 616,37.16188,127.575138,
323,1569,하안동,경기도 광명시 하안동 26,37.467074,126.88029,"치킨,닭강정"
324,1569치킨&amp;카페,하안4동,경기도 광명시 하안4동 13,37.467671,126.877419,"치킨,닭강정"
325,1588피자,궁동,서울특별시 구로구 궁동 199-6,37.493401,126.834532,피자
326,15구데쎄르,동탄,경기도 화성시 반송동 53-3,37.206301,127.062012,
327,15년 전통 우리 왕족발,,서울특별시 은평구 갈현동,37.613794,126.916505,
328,15년전통뼈다귀해장국,화도읍,경기도 남양주시 화도읍 마석우리 288-6,37.652112,127.30998999999998,감자탕
329,15번출구호프,종로,서울특별시 종로구 관수동 58,37.57,126.991,"맥주,호프"
330,15번홍어집,,전라남도 신안군 흑산면 예리,34.683723,125.442412,
331,15칼로리,천호,서울특별시 강동구 천호동 410-14,37.539322,127.127858,
332,160도,통영,경상남도 통영시 무전동 1060-3,34.86158,128.425098,베이커리
333,161 커피 스튜디오,현풍,대구광역시 달성군 현풍면 원교리 161,35.6905,128.444,카페
334,161카페,창동,경상남도 창원시 마산합포구 창동 161,35.205675,128.57532,베이커리
335,161커피스튜디오,현풍,대구광역시 달성군 화원읍 161,35.6905,128.445,카페
336,1637카페,주문진,강원도 강릉시 주문진읍 교항리 81-16,37.881797,128.831706,빙수
337,1638,신내동,서울 중랑구 신내동,37.616974,127.10415,
338,1686 Lounge,처인구,경기도 용인시 처인구,37.339432,127.182679,
339,1686라운지,처인구,경기도 용인시 처인구,37.339072,127.18262,
340,168도시락국,초량,부산광역시 동구 초량동 994-130,35.117115000000005,129.035764,한식
341,168빵카페,초량,부산광역시 동구 초량동 994-213,35.1172,129.035,베이커리
342,169뒷통,삼계동,경상남도 김해시 삼계동 1457-6,35.262682,128.87348899999998,
343,16마르잔,연남동,서울특별시 마포구 동교동 149-11,37.560252,126.925142,와인
344,16번가커피,첨단,광주광역시 광산구 쌍암동 654-16,35.221747,126.843098,카페
345,16번출구 칼삼겹,두류동,대구광역시 달서구,35.857341,128.558447,
346,16오마주,대흥,대전광역시 중구 대흥동 411-2,36.32441,127.425499,"카페,디저트"
347,16차원,동패동,경기도 파주시 동패동 135,37.70751,126.744677,
348,16호원조할머니칼국수,대부도,경기도 안산시 단원구 대부북동 1837-81,37.270519,126.570921,"칼국수,만두"
349,17,회기,서울특별시 동대문구 회기동 17,37.59235,127.053385,피자
350,170 팩토리,양산,경상남도 양산시 물금읍 범어리 2700-8,35.328951,129.009612,"카페,디저트"
351,170펙토리,물금읍,경상남도 양산시 물금읍 범어리 2700-8,35.328922,129.00958,"카페,디저트"
352,171+,신촌역,서울특별시 서대문구 대현동 27-33,37.5588,126.943,
353,1723,전주한옥마을,전라북도 전주시 완산구 교동 98-2,35.81274000000001,127.15168,카페
354,172후라이드라이스,화정동,광주광역시 서구 화정동 1302,35.141763,126.884996,"스파게티,파스타전문"
355,17812,여주,경기도 여주 금사면 이포리 178-12,37.395599,127.537123,
356,178도씨,강화도,경기 김포시 대곶면 대명리 551-2,37.6403,126.544,"일식튀김,꼬치"
357,178도씨,대명항,경기도 김포시 대곶면 대명리 488-12,37.64034,126.543562,"일식튀김,꼬치"
358,179실비,오리역,경기도 성남시 분당구 구미동 179,37.339949,127.109809,한식
359,17길,두산동,대구광역시 수성구 두산동 170-21,35.830649,128.61855,"백반,가정식"
360,17도씨,연남동,서울특별시 마포구 연남동 257-21,37.56215,126.923071,초콜릿전문점
361,17번가,당고개역,서울특별시 노원구 상계동 111-471,37.670857,127.079811,카페
362,17번국도기사식당,소라면,전라남도 여수시 소라면 대포리 626,34.817987,127.621907,
363,17번지닭한마리,양정,부산광역시 부산진구 양정2동 271-20,35.174679,129.075302,닭요리
364,17테이블,부산대,부산광역시 금정구 장전동 302-13,35.229652,129.087296,패밀리레스토랑
365,17호 동광호,,강원도 속초시 장사동,38.226454,128.588061,
366,180도,상무지구,광주광역시 서구 치평동 1222-7,35.15429,126.853526,
367,180카페,창전동,경기도 이천시 창전동 453-2,37.283816,127.450654,"카페,디저트"
368,180커피로스터스,율동공원,경기도 성남시 분당구 율동 323-9,37.382561,127.151573,카페
369,180펍,상현동,경기도 용인시 수지구 상현동 1161-4,37.295773,127.080168,
370,1830 피체리아,대치동,서울특별시 강남구 대치4동 912-29,37.502226,127.057734,피자
371,1830피자,포승읍,경기도 평택시 포승읍 도곡리 1130-3,36.990538,126.843494,피자
372,1842,한남동,서울특별시 용산구 한남동 683-141,37.53644600000001,127.000498,양식
373,185 table,쌍촌동,광주광역시 서구 쌍촌동 947-38,35.1527,126.869,
374,185카페,상남면,대구광역시 달성군 구지면 응암리 1204-5,35.656212,128.41891299999997,"카페,디저트"
375,186 AmericanBistro,괴정동,대전광역시 서구 괴정동 136-1,36.3376,127.376,양식
376,1865와인주막,상무지구,광주광역시 서구 치평동 245-14,35.146922,126.853072,
377,1865이탈리안레스토랑,운암동,광주광역시 북구 운암동 876-19,35.1753,126.872,양식
378,1894사랑채,황리단길,경상북도 경주시 황남동 238-1,35.836167,129.211988,"카페,디저트"
379,18번가가요리믹스,종로,서울특별시 종로구 관철동 32-4,37.56891,126.985344,"맥주,호프"
380,18번완당,서면,부산광역시 부산진구 부전동 486-2,35.158216,129.057226,한식
381,18번완당집,정관,부산광역시 기장군 장안읍 좌천리 545,35.323855,129.235094,종합분식
382,18번완당집,하단,부산광역시 사하구 하단동 526-6,35.1066,128.966366,국수
383,18번완당집,남천동,부산광역시 수영구 남천동 10-6,35.143845,129.11057,"우동,소바"
384,18번완당집,남포동,부산시 중구 남포동3가 1 B1F,35.09896,129.02847,종합분식
385,1901,춘천,강원도 춘천시 동내면 거두리 611-6,37.8613,127.768,
386,1905 자이언트 몬스터피자,중곡동,경상남도 거제시 고현동 987-7,34.896736,128.629539,
387,1905몬스터피자,산격3동,대구광역시 북구 산격3동 1308-23,35.894733,128.61032,
388,192센티미터,호매실,경기도 수원시 권선구 호매실동 1342-3,37.407172,126.970493,카페
389,1933오후,곡성,전라남도 곡성군 읍내리 189-8,35.282486,127.298508,
390,1938 Coffee&amp;Flower,신암동,대구광역시 동구 신암동 209-92,35.879687,128.620353,카페
391,1939 군산과자조합,신창동,전라북도 군산시 신창동 48-4,35.987201,126.709477,"카페,디저트"
392,193커피,신방동,충청남도 천안시 동남구 신방동 193,36.78,127.137,브런치
393,194,분당정자,경기도 성남시 분당구 삼평동 682,37.401909,127.106578,"치킨,닭강정"
394,1943,심곡동,경기도 부천시 심곡동 180-14,37.487327,126.781741,요리주점
395,1943,구월동,인천광역시 남동구 구월동 1467-1,37.44425,126.701688,요리주점
396,1943,동성로,대구광역시 중구 삼덕동1가 57 2층,35.866393,128.598968,요리주점
397,1945경성반점,전주,전라북도 전주시 완산구 삼천동2가 239-2,35.792702,127.106102,중식당
398,1949 soju&beer,인계동,경기도 수원시 팔달구 인계동 1113-5,37.2644,127.032,
399,1950하우스,애월,제주특별자치도 제주시 애월읍 유수암리 1023,33.42466,126.40918700000002,
400,1950하우스,애월읍,제주도 제주시 애월읍 유수암리 1023,33.424908,126.409386,
401,1952 그집,구리,경기도 구리시 인창동 670-8,37.604618,127.140801,요리주점
402,1953 연남 서서갈비,정자동,경기도 성남시 분당구 정자동 44-4,37.3724,127.114,소고기구이
403,1953서서갈비,가로수길,서울특별시 강남구 신사동,37.520747,127.019926,
404,1953연남서서갈비,합정,서울특별시 마포구 합정동 410-17,37.54823,126.919184,
405,1953연남서서갈비,망원동,서울특별시 마포구 망원동 396-2,37.5533,126.903,
406,1957참치,불당동,충청남도 천안시 서북구 불당동 1634,36.8111,127.107,생선회
407,1958,평내동,경기도 남양주시 평내동 582-5,37.646539,127.235531,
408,1958김여사 코다리찜,,전라북도 군산시 나운동,35.961956,126.696591,
409,1959카페,팔탄면,경기 화성시 팔탄면 율암리 835-10,37.153892,126.881662,카페
410,1960깡통치킨,반여동,부산광역시 해운대구 반여동 1291-1049,35.1946,129.13,"치킨,닭강정"
411,1960청원모밀,상무지구,광주광역시 서구 치평동 1278-2,35.144378,126.840994,일식당
412,1960통닭,천호동,서울특별시 강동구 천호동 288-29,37.549099,127.129448,"치킨,닭강정"
413,1964백미당,여의도,서울특별시 영등포구 여의도동 23,37.525182,126.924864,카페
414,1967 바다지음,여수,전라남도 여수시 공화동 766,34.745185,127.744854,생선회
415,1968쌀국수,만촌동,대구광역시 수성구 만촌동 948-3,35.864761,128.640515,
416,197,수지,경기도 용인시 수지구 상현동 197,37.306285,127.075788,
417,1970스타일미,수택동,경기도 구리시 수택동 405-24,37.599636,127.141953,
418,1970연탄가게,공도읍,경기도 안성시 공도읍 만정리 709-2,37.00307,127.176401,"육류,고기요리"
419,1970핫도그,고촌읍,경기도 김포시 고촌읍 전호리 654,37.599375,126.785558,
420,1970핫도그,상남동,경상남도 창원시 성산구 상남동 44-1,35.22047,128.690497,핫도그
421,1970핫도그,하단,부산광역시 사하구 하단동 526-6,35.1066,128.966,핫도그
422,1970핫도그,남포동,부산광역시 중구 창선동1가 30-12,35.099437,129.031047,핫도그
423,1971바,회기동,서울특별시 동대문구 회기동 42-50 2층,37.59252,127.051814,
424,1973대연,대연동,부산광역시 남구 대연동 896-8,35.1328,129.089,국밥
425,1974골목,서면,부산광역시 부산진구 부전2동 516-3,35.155477000000005,129.057106,"육류,고기요리"
426,1974무사,안산중앙동,경기도 안산시 단원구 고잔동 541,37.317235,126.837481,돈가스
427,1974통치킨,일산동,경기도 고양시 일산서구 일산동 2023,37.689448,126.770784,
428,1974포차,건건동,경기도 안산시 상록구 건건동 551-1,37.309482,126.903884,
429,1975막걸리&amp;호프,신내동,서울특별시 중랑구 신내동 493-64,37.600436,127.099504,"전통,민속주점"
430,1976샤브샤브,홍대,서울특별시 마포구 상수동 310-8,37.548083,126.92228,샤브샤브
431,1976샤브샤브,하안동,경기도 광명시 하안동 38,37.461239,126.879908,샤브샤브
432,1976샤브샤브,상수,서울특별시 마포구 상수동 327-1 2층,37.547056,126.922566,샤브샤브
433,1977,김해,경상남도 김해시 봉황동 98-11,35.22720800000001,128.876278,"맥주,호프"
434,1977방서방 코다리한상,하남미사,경기도 하남시 망월동 1022-8,37.5695,127.182,"해물,생선요리"
435,1977오금동 옛날손칼국수,오금동,서울특별시 송파구 오금동 155-14,37.499618,127.137779,"칼국수,만두"
436,1978,의정부,경기도 의정부시 의정부동 442-12,37.738929,127.044638,이탈리아음식
437,1978 테라스,남산,서울특별시 중구 예장동 8-39,37.5568,126.985347,이탈리아음식
438,1978범어주택,범어동,대구광역시 수성구 범어동 165-14,35.859594,128.63122099999998,
439,1978참숯치킨&amp;등갈비,신천동,대구광역시 동구 신천동 465-17,35.871742,128.631992,"치킨,닭강정"
440,1978참숯치킨등갈비,만촌동,대구광역시 수성구 만촌동 1027-1,35.860725,128.642286,
441,1978참숯치킨앤등갈비,중동,대구광역시 수성구 중동 174-5,35.842359,128.613422,"치킨,닭강정"
442,1978참숯치킨앤등갈비,대구,대구광역시 북구 태전동 1023-9,35.9288,128.55100000000002,
443,1979남포통닭,용원동,경상남도 창원시 진해구 용원동 1186-12,35.101103,128.817507,
444,1979동태매운탕&amp;쭈꾸미,광명동,경기도 광명시 광명동 104-17,37.481578000000006,126.856241,"매운탕,해물탕"
445,1979서기치킨,암사동,서울특별시 강동구 암사동 493-9,37.551691,127.132922,
446,1979옛날곱창,김천,경상북도 김천시 부곡동 1340,36.124934,128.090384,"곱창,막창,양"
447,1979칭따오양꼬치,청주,충청북도 청주시 서원구 분평동 1354 칭따오양꼬치1979,36.608744,127.495437,
448,197스트리트,광안리,부산광역시 수영구 광안2동 197-20,35.151868,129.11691299999998,
449,1981,울산,울산광역시 중구 성안동 830-12,35.573298,129.312341,"스파게티,파스타전문"
450,1981봄,사가정,서울특별시 중랑구 면목동 634-10,37.579842,127.08716499999998,국수
451,1981옛날통닭,목동동,경기도 파주시 목동동 684,37.72065,126.744173,"치킨,닭강정"
452,1982(일구팔이),교동,강원도 강릉시 교동 1864-10,37.76488,128.878687,"육류,고기요리"
453,1982돈이돈이,완주,전라북도 완주군 봉동읍 둔산리 902-10,35.959048,127.125234,한식
454,1982떡볶이&컵밥,을지로입구역,서울특별시 중구 을지로2가 9-7,37.565102,127.007765,종합분식
455,1983,조대,광주광역시 동구 서석동 422-19,35.145081,126.928797,
456,1983 pizza&pub,역곡,경기도 부천시 역곡동 51-4,37.4853,126.807,피자
457,1983 초밥,호원동,경기도 의정부시 호원동 442-3,37.716346,127.047432,"초밥,롤"
458,1983더그레이,괴정동,대전광역시 서구 괴정동 4-14,36.340879,127.38643700000002,"카페,디저트"
459,1983바베큐,합정동,경기도 평택시 합정동 729-11,36.992654,127.092124,양식
460,1983싸다돼지,청주,충청북도 청주시,36.612655,127.444951,
461,1983족발왕,방촌동,대구광역시 동구 방촌동 883-12,35.880917,128.66720800000002,"족발,보쌈"
462,1983차,교대,광주광역시 동구 계림동 1084,35.163000000000004,126.924,
463,1984 나폴리,서면,부산광역시 부산진구 전포동 687-18,35.15517,129.064134,이탈리아음식
464,1984pizza,현덕면,경상북도 울진군 후포면 삼율리 313-5,36.679848,129.441349,피자
465,1984감성곱창,나운동,전라북도 군산시 나운동 819-5,35.968339,126.70001299999998,
466,1984나폴리,금정구,부산광역시 금정구 남산동 992-13,35.264223,129.08483600000002,이탈리아음식
467,1984나폴리,양산,경상남도 양산시 물금읍 범어리 539-5,35.33152000000001,128.997218,이탈리아음식
468,1984나폴리,울주군,울산시 울주군 청량읍 율리 1470-9 1층,35.527522,129.239993,이탈리아음식
469,1984하동,서면,부산광역시 부산진구 전포동 687-11,35.155215000000005,129.064299,요리주점
470,1985닭발,마산,경상남도 창원시 마산회원구 내서읍 상곡리 53-8,35.243075,128.50342,닭발
471,1985돼지로,두산동,대구광역시 수성구 두산동 92,35.839398,128.62141200000002,
472,1985하이마트,종로,서울특별시 종로구 종로1가 24 르메이에르 종로타운 5층,37.570459,126.979851,종합가전
473,1986 baker,상계동,서울특별시 노원구 상계동 430-21,37.662,127.066,베이커리
474,1987,까치산,서울특별시 강서구 화곡동 338-21,37.533941,126.846682,
475,1987갈비,충무로,서울특별시 중구 필동3가 3-2,37.56054,126.997041,"육류,고기요리"
476,1987루프탑,탄방동,대전광역시 서구 탄방동 740,36.347295,127.389482,바(BAR)
477,1987루프탑,평택,경기도 평택시 비전동 1092,37.001269,127.112911,요리주점
478,1987루프탑,세종시,세종특별자치시 도담동 673,36.514106,127.257937,바(BAR)
479,1987루프탑&카페,하남,경기도 하남시 창우동 14,37.5415,127.237,베이커리
480,1987루프탑라운지,두정동,충청남도 천안시 서북구 두정동 913,36.833119,127.135434,
481,1987루프탑라운지,잠실,서울특별시 송파구 방이동 36-7,37.5151,127.109,바(BAR)
482,1987루프탑라운지,청주,충청북도 청주시 흥덕구 비하동 295-20,36.640069,127.421958,바(BAR)
483,1987루프탑라운지,인계동,경기도 수원시 팔달구 인계동 1040-2,37.265807,127.03128,바(BAR)
484,1987루프탑라운지,유성,대전광역시 유성구 봉명동 619-1,36.358832,127.345155,바(BAR)
485,1988 고기불패,용인,경기도 용인시 처인구 김량장동 87-2,37.235055,127.20636100000002,고기뷔페
486,1988고기불패,광교,경기도 수원시 영통구 이의동 1314-3,37.295078,127.055306,
487,1988고기불패,홍대,서울특별시 마포구 서교동 407-12 2층,37.550354,126.922142,고기뷔페
488,1988고기불패,용인,경기도 용인시 처인구 포곡읍 둔전리 151-8,37.268744,127.217902,고기뷔페
489,1988고기불패,정동면,경상남도 사천시 정동면 고읍리 438-62,35.078672999999995,128.086673,
490,1988블랙커피,비하동,충청북도 청주시 흥덕구 비하동 235-1,36.634276,127.423113,
491,1988스테이크,,제주특별자치도 1329-6,33.510277,126.526459,
492,1988양꼬치,심곡동,경기도 부천시 심곡동 192-11,37.487976,126.782371,중식당
493,1988옛날통닭,위례,경기도 성남시 수정구 창곡동 508,37.4718,127.143,
494,1988옛날통닭,오류동,서울특별시 구로구 오류동 137-6,37.492544,126.84366,"치킨,닭강정"
495,1988옛날통닭,병점동,경기도 화성시 병점동 870,37.204885,127.038462,
496,1988옛날통닭,중산동,경기도 고양시 일산동구 중산동 1568,37.69403,126.781271,"치킨,닭강정"
497,1988오리진,안국역,서울특별시 종로구 재동 84-30,37.5782,126.986,돈가스
498,1988전주꽃날,인후동1가,전라북도 전주시 덕진구 인후동1가 768-7,35.83692199999999,127.155166,
499,1988추억의통닭,시청,경기도 용인시 처인구 삼가동 250-32,37.239411,127.173234,"치킨,닭강정"
500,1988추억의통닭,지곶동,경기도 오산시 지곶동 577,37.168421,127.025923,"치킨,닭강정"
501,1988추억의통닭,누읍동,경기도 오산시 누읍동 532,37.141078,127.047659,"치킨,닭강정"
502,1988포차,강남역,서울특별시 서초구 서초동 1304-4,37.5019,127.025,포장마차
503,1988호프,금호동,광주광역시 서구 금호동 762-11,35.133786,126.85881299999998,
504,1988홀리데이인서울,명동,서울특별시 중구 충무로2가 60-3,37.5613,126.989,
505,1989 비스트로,경리단길,서울특별시 용산구 이태원동 260-95,37.54100800000001,126.991663,양식
506,1989경양식,서정동,경기도 평택시 서정동 866-13,37.064523,127.057826,햄버거
507,1989고깃집,하소동,충청북도 제천시 하소동 64-43,37.141433,128.199627,돼지고기구이
508,1989고깃집,송도,인천광역시 연수구 송도동 190-2,37.3767,126.654,"육류,고기요리"
509,1989닭날개,궐동,경기도 오산시 궐동 696-1,37.157467,127.057515,
510,1989삼영동커피집,나주,전라남도 나주시 삼영동 277-3,35.004603,126.70081,"카페,디저트"
511,1989카페,내곡동,강원도 강릉시 내곡동 470-24,37.744986,128.882476,
512,1990대명,대구,대구광역시 남구 대명동 3026-4,35.8489,128.57299999999998,
513,1990포차,와부읍,경기도 남양주시 와부읍 덕소리 193-3,37.589058,127.217318,포장마차
514,1991케이크,구미동,경기도 성남시 분당구 구미동 30,37.348945,127.110465,"카페,디저트"
515,1992핏짜,남일동,대구광역시 중구 남일동 132,35.868957,128.592714,
516,1994다이닝,방화동,경상북도 경주시 성건동 677-111,35.851415,129.210217,패밀리레스토랑
517,1994비어,신기동,대구광역시 동구 신기동 596,35.866099,128.704992,
518,1994시그널,나성동,세종특별자치시 나성동 795,36.490099,127.257765,"맥주,호프"
519,1994커피,지산동,대구광역시 수성구 지산동 1161-10,35.826006,128.626969,"카페,디저트"
520,1994커피,삼척,강원도 삼척시 갈천동 14,37.466947,129.169268,"카페,디저트"
521,1994커피,영천,경상북도 영천시 교촌동 220-4,35.967205,128.926591,카페
522,1994통닭,사동,경상북도 경산시 사동 601,35.815162,128.753726,"치킨,닭강정"
523,1994한양대김치찌개,목동동,경기도 파주시 목동동 1069-3,37.7227,126.739635,"찌개,전골"
524,1997영국집,창원가로수길,경상남도 창원시 의창구 용호동 53-5,35.237897,128.682017,"카페,디저트"
525,1997클라라,김해시,경상남도 김해시 465-8,35.176687,128.802447,"카페,디저트"
526,1999부대찌개,수택동,경기도 구리시 수택동 521-20,37.600546,127.144815,"찌개,전골"
527,19공탄 연탄구이,간석동,인천광역시 남동구 간석1동 459-7,37.460145,126.703656,"육류,고기요리"
528,19금떡볶이,신림,서울특별시 금천구 독산동 958-63,37.47822,126.902901,
529,19번지 떡볶이,상계동,서울특별시 노원구 상계동 140-146,37.664599,127.073885,떡볶이
530,19번지떡볶이,창동,서울특별시 도봉구 창동 562-9,37.6385,127.04,종합분식
531,19티,인계동,경기도 수원시 팔달구 인계동 1114-1,37.2663,127.034,차
532,19티,청주,충청북도 청주시 흥덕구 강서동 488,36.6244,127.429,
533,19티,안산중앙역,경기도 안산시 단원구 고잔동,37.3171,126.838,차
534,19티,부천역,경기도 부천시 심곡동 383-8,37.486,126.78,차
535,19티,서현동,경기도 성남시 분당구 서현동 256,37.3874,127.122,차
536,19티,사동,경상북도 경산시 사동 31,35.811717,128.754307,차
537,19프라이데이,홍대,서울특별시 마포구 서교동 328-39,37.555733,126.928198,
538,19홀bar,반송동,경기도 화성시 반송동 104-3,37.201128,127.071929,
539,1bean,갈매동,경기도 구리시 갈매동 166-4,37.641124,127.115247,
540,1FLF,양재동,서울특별시 서초구 양재동 250-6,37.472795,127.041706,
541,1F하우스,대안동,경상남도 진주시 대안동 16-6,35.19547700000001,128.082881,
542,1kg왕소금구이,칠곡,대구광역시 북구 태전동 1122,35.91248,128.547268,"육류,고기요리"
543,1LL,경대북문,대구광역시 북구 산격동 1399-11,35.8922,128.608,카페
544,1LL,성서,대구광역시 달서구 호산동 383-1 2층,35.85047700000001,128.485964,"카페,디저트"
545,1LL,성서,대구광역시 달서구 호산동 110,35.854279,128.478454,"카페,디저트"
546,1ROOM,감정동,경기도 김포시 감정동 594-15,37.62146,126.70012,"카페,디저트"
547,1st Chef,내동,경상남도 김해시 내동 1120-1,35.236898,128.866331,
548,1st Recipe,충장로,광주광역시 동구 황금동 76-2,35.146564,126.917419,이탈리아음식
549,1st인테리어카페,호평동,경기도 남양주시 호평동 674-1,37.656346,127.254883,
550,1군단라이브,방배동,서울특별시 서초구 방배동 440-7 현대자동차 B1,37.481036,126.982239,
551,1도씨,구미,경상북도 구미시 원평동 1050-11,36.1259,128.345,"카페,디저트"
552,1도씨맥주,광양읍,전라남도 광양시 광양읍 용강리 909-11,34.970418,127.609913,1도씨맥주
553,1도씨맥주,전주,전북 전주시 완산구 서신동 836-2,35.827674,127.116043,1도씨맥주
554,1동별미식당,생연동,경기도 동두천시 생연동 498-10,37.909424,127.059753,
555,1등닭발,동탄,경기도 화성시 704-15,37.205367,127.113747,닭발
556,1등대게,기장시장,부산광역시 기장군 기장읍 대라리 436,35.243696,129.21436599999998,수산물
557,1등돼지,장유,경상남도 김해시 444-3,35.1774,128.791,돼지고기구이
558,1등뷔페,전남무안,전라남도 무안군 일로읍 용산리 713-3,34.853808,126.498505,한식뷔페
559,1등수산물백화점,광주,광주광역시 남구 진월동 291-1,35.1218,126.898,생선회
560,1등숯불갈비,괴정,부산광역시 사하구 괴정동 951-1,35.098518,128.99303899999998,"육류,고기요리"
561,1등치고,현동,경상남도 창원시 마산합포구 현동 527,35.145875,128.55594399999998,
562,1등치고,해운동,경상남도 창원시 마산합포구 해운동 69-1,35.182328000000005,128.564387,
563,1미터피자,충주,충청북도 충주시 교현동 416-16,36.977168,127.935453,
564,1박2일,교동,강원도 강릉시 교동 1799-9,37.771461,128.878675,한식
565,1박2일,상현동,경기 용인시 수지구 상현동,37.30905,127.085415,
566,1박2일,녹양동,경기도 의정부시 녹양동 330-5,37.757974,127.038876,
567,1박2일,내동,경상남도 김해시 내동 1144-1,35.235582,128.867208,
568,1박2일,생연동,경기도 동두천시 생연동 342-4,37.896823,127.062369,
569,1박2일,오포읍,경기도 광주 오포읍 문형리 525-1,37.341532,127.206664,생선회
570,1박2일,황금동,대구광역시 수성구 황금동 891-4,35.84037700000001,128.621653,
571,1박2일,동면,경상북도 고령군,35.727587,128.266522,모텔
572,1박2일,상동면,경상남도 밀양시 상동면 안인리 8-5,35.549096,128.75958799999998,
573,1박2일,칠암동,경상남도 진주시 칠암동 490-8,35.178744,128.094119,
574,1박2일,신월동,경상남도 창원시 의창구 신월동 68-1,35.228237,128.691991,
575,1박2일,서면,강원도 홍천군 남면 86-1,37.624915,127.662475,
576,1박2일,밀양,경상남도 밀양시 상동면 안인리 8-5,35.54898499999999,128.75966,펜션
577,1박2일,원주,강원도 원주시 단계동 821-7,37.349064,127.9307,"맥주,호프"
578,1박2일,군산,전라북도 군산시 산북동 3541-13,35.96716,126.68435,한식
579,1박2일,장흥,전라남도 장흥군 안양면 수문리 249-6,34.63069,127.03025,
580,1박2일,춘천,강원도 춘천시 효자1동 483-10,37.87373,127.73353600000002,
581,1박2일,쌍촌동,광주광역시 서구 쌍촌동 1322-8,35.159718,126.85833999999998,
582,1박2일,안산,경기도 안산시 상록구 사2동 1384-8,37.285107,126.84672,펜션
583,1박2일 무한리필,수성동,전라북도 정읍시 수성동 1040-4,35.5821,126.856,
584,1박2일 조개찜,거제,경상남도 거제시 일운면 지세포리 931-42,34.829652,128.70513300000002,"매운탕,해물탕"
585,1박2일꼬막정식,벌교,전라남도 보성군 회정리 벌교읍  653-7,34.84836,127.34443,
586,1박2일명물닭갈비,강촌,강원도 춘천시 남산면 창촌리 268-1,37.76945300000001,127.636954,
587,1박2일벌교꼬막촌,온천장,부산광역시 동래구 온천동 159-29,35.21845300000001,129.084377,한식
588,1박2일식당,대방동,경상남도 창원시 성산구 대방동 357,35.212454,128.708318,
589,1박2일조개찜,거제도,경상남도 거제시 고현동 1017-1,34.892506,128.62682,"매운탕,해물탕"
590,1박2일중식,원주,강원도 원주시 지정면 간현리 1040-7,37.364018,127.834868,
591,1박2일포차,구로동,서울특별시 구로구 구로동 545-5,37.503066,126.88762,포장마차
592,1박2일포차,광명동,경기도 광명시 광명동 337-40,37.472537,126.854254,
593,1박2일학동맛집,거제도,경상남도 거제시 동부면 학동리 291-4,34.77406,128.6407,"해물,생선요리"
594,1번 도매횟집,내동,경상남도 김해시 내동 1117-4,35.235142,128.86602299999998,생선회
595,1번가찌개하우스,서정동,경기도 평택시 서정동 815-17,37.067726,127.062355,
596,1번떡볶이,이매동,경기도 성남시 분당구 이매동 106-5,37.398926,127.126908,
597,1번장터국밥,구포시장,부산광역시 북구 구포동 596-4,35.208371,129.004459,국밥
598,1번주,사동,경상북도 경산시 사동 599-5,35.815951,128.754161,
599,1번지 닭갈비,신당동,서울특별시 중구 신당동 121-36,37.564801,127.019112,닭갈비
600,1번지 조개타운,대천해수욕장,충청남도 보령시 신흑동 1959,36.306858,126.516693,조개요리
601,1번지닭갈비,덕계동,경기도 양주시 덕계동 407-2,37.817626,127.049764,한식
602,1번지맛집,신갈동,경기도 용인시 기흥구 신갈동 70,37.271275,127.105938,
603,1번지삼겹살,원주,강원도 원주시 단계동,37.348356,127.930609,
604,1번지식당,봉천동,서울특별시 관악구 봉천동 951-13,37.485656,126.939166,양식
605,1번지튀김,대포항,강원 대포동 965,38.173556,128.605804,한식
606,1번지포차,부발읍,경기도 이천시 부발읍 무촌리 166-38,37.283916,127.487763,포장마차
607,1번지회포차,동해,강원도 동해시 천곡동 856,37.5217,129.115,
608,1번출구,부산대,부산광역시 금정구 장전동 293-72,35.22883200000001,129.087774,
609,1번출구옛날통닭,가능동,경기도 의정부시 가능동 198-16,37.748501,127.043898,"치킨,닭강정"
610,1센치,수성동4가,대구광역시 수성구 수성동1가 259-61,35.855795,128.612324,
611,1식당,망원동,서울특별시 마포구 합정동 433-60,37.552192,126.906901,
612,1인1닭,신장동,경기도 하남시 신장동 427-124,37.53948,127.205997,
613,1인1닭 착한통닭,본오동,경기도 안산시 상록구 본오동 787-4,37.294003,126.871122,"치킨,닭강정"
614,1인1닭 착한통닭,후암동,서울특별시 용산구 용산동2가 1-1334,37.5463,126.982,"치킨,닭강정"
615,1인1상,은평,서울특별시 은평구 진관동 134-31,37.640859000000006,126.937821,이탈리아음식
616,1인1잔,은평,서울특별시 은평구 진관동 9992-9991,37.640972,126.937943,"카페,디저트"
617,1인삼겹 오빠삼,군산,전라북도 군산시 미룡동 876-1,35.9465,126.687,
618,1인야식,양촌읍,경기도 김포시 양촌읍 양곡리 1303-4,37.656099,126.628707,
619,1인용,대화동,경기도 고양시 일산서구 대화동 2012-4,37.683743,126.759778,한식
620,1인용,장항동,경기도 고양시 일산동구 장항동 881,37.648675,126.777049,
621,1인용,둔촌동,서울특별시 강동구 둔촌동 492,37.530394,127.138198,
622,1인용,의정부,경기도 의정부시 민락동 607,37.7383,127.091,한식
623,1인용,경희대,서울특별시 성북구 석관동 332-118,37.604887,127.060984,한식
624,1인용,면목,서울특별시 중랑구 면목동 618-1,37.579839,127.088773,
625,1인용,,인천광역시,37.45941,126.653571,
626,1인용,상도동,서울특별시 동작구 상도동 204-3,37.500162,126.94226,
627,1인용,화곡동,서울특별시 강서구 화곡동 359-2,37.53302100000001,126.837408,
628,1인용,자양동,서울특별시 광진구 자양동 627-27,37.53479,127.083319,
629,1인용,관악,서울특별시 관악구 봉천동 1563-3,37.4798,126.943,한식
630,1인용,건대,서울특별시 성동구 성수동2가 636,37.535031,127.055435,
631,1인용,왕십리,서울특별시 성동구 마장동 533-6,37.566448,127.034703,한식
632,1인용,죽도동,경상북도 포항시 북구 죽도동,36.023923,129.36053700000002,
633,1인용,창동,서울특별시 도봉구 창동 299,37.654052,127.04229,
634,1인용식탁,서정동,경기도 평택시 서정동 847-1,37.06656,127.062,
635,1인자24시감자탕뼈해장국,곡반정동,경기도 수원시 권선구 곡반정동 585-7,37.235101,127.026337,감자탕
636,1인자감자탕,야탑,경기도 성남시 야탑동 372-2,37.411782,127.130788,감자탕
637,1인자감자탕,화성시,경기도 화성시 송산면 사강리 708-7,37.21334,126.73236,감자탕
638,1인자감자탕,수원대,경기도 화성시 봉담읍 와우리 61-5,37.214783,126.97802,감자탕
639,1인자감자탕,수원,경기도 수원시 권선구 고색동 380-4,37.249905,126.97872,감자탕
640,1인자감자탕,안산,경기도 안산시 상록구 건건동 551-8,37.30923,126.90383,감자탕
641,1인자감자탕,독산동,서울특별시 금천구 독산동 1006-30,37.466377,126.894586,감자탕
642,1인자감자탕,영통동,경기도 수원시 영통구 영통동 959-1,37.254559,127.073473,감자탕
643,1인자숯불구이,동삭동,경기도 평택시 동삭동 704-5,37.006957,127.096137,"육류,고기요리"
644,1인정식 MY 홈써비스,수청동,경기도 오산시 수청동 517-15,37.164421,127.061154,
645,1인통큰야식,가산동,서울특별시 금천구 가산동 142-42,37.478358,126.891044,
646,1프로김밥 그리고 커피이야기,남산동,대구광역시 중구 남산동 516,35.865782,128.59039,김밥
647,1플러스 식육점,울산남구,울산시 남구 신정동 855-34,35.527613,129.319205,
648,1학년,서현동,경기도 성남시 분당구 서현동 89-7,37.38149600000001,127.128116,
649,1학년1반분식,영등동,전라북도 익산시 영등동 818-11,35.962784,126.97988,
650,1호점쌈밥,소흘읍,경기도 포천시 소흘읍 이동교리 135-1,37.81618,127.136962,
651,1호친할머니칼국수,대부도,경기도 안산시 단원구 대부북동 1222-3,37.268661,126.57443899999998,"칼국수,만두"
652,2 Dots Bakery,신림,서울특별시 관악구 신림동 1639-6,37.4835,126.927,베이커리
653,BBQ치킨,예천,충청남도 서산시 예천동,36.770672,126.436265,
654,가야황토석쇠구이,중앙동,경상남도 창원시 성산구 중앙동 100-4,35.220146,128.67590900000002,
655,공릉회수산,공릉동,서울특별시 노원구 공릉동 408-8,37.625844,127.079664,생선회
656,굽네치킨,광양,전라남도 광양시 중동 1663,34.934895000000004,127.690076,"치킨,닭강정"
657,궁,정읍,전라북도 정읍시 상동 247-1,35.558624,126.873985,중식당
658,김밥하우스,압량면,경상북도 경산시 압량면 부적리 275-10,35.844669,128.760904,
659,낙지마당,신촌동,경상남도 창원시 성산구 신촌동 15-4,35.207848,128.626509,낙지요리
660,두꺼비식당,제천,충청북도 제천시 중앙로2가 72-7,37.141563,128.214832,"육류,고기요리"
661,두메산골,여주,경기도 여주시 강천면 부평리 245-2,37.28257,127.742359,한식
662,마시로포차,호평동,경기도 남양주시 호평동 627-3,37.655136,127.241249,포장마차
663,명동찌개마을,철산,경기도 광명시 철산동 421,37.474825,126.868521,"찌개,전골"
664,물레방아분식,기장,부산광역시 기장군 기장읍 교리 353-6,35.253,129.218539,종합분식
665,바랗,천안,충청남도 천안시 동남구 청당동 565,36.7847,127.157,일식당
666,바오밥,대학로,서울특별시 종로구 명륜4가 164-1,37.582451,126.99967,"사진,스튜디오"
667,봄날35,익산,전라북도 익산시 영등동 291-12,35.954777,126.968307,카페
668,불먹은도야지,원종동,경기도 부천시 원종동 141-3,37.524272,126.79946499999998,
669,색동면옥,안산,경기도 안산시 상록구 성포동 593-8,37.326341,126.845137,냉면
670,색동면옥,융건릉,경기도 화성시 안녕동 186-19,37.206469,126.989145,냉면
671,색동면옥,안산,경기도 안산시 상록구 팔곡2동 444-4,37.293553,126.884434,냉면
672,색동저고리,대치역,서울특별시 강남구 대치동 507 원플러스상가 지하1층 107호,37.493358,127.061909,한정식
673,서양식당,국우동,대구광역시 북구 국우동 1083-18,35.945955,128.570441,
674,석구네횟집,제부도,경기도 화성시 서신면 제부리 190-4,37.16942,126.61886,생선회
675,싱싱치킨,매호동,대구광역시 수성구 매호동 997-2,35.84415300000001,128.708457,"치킨,닭강정"
676,야당리외식공간,일산,경기도 파주시 야당동 466-59,37.706442,126.754251,
677,에스프레소 822-7,전주,전라북도 전주시 덕진구 송천동1가 822-7,35.864294,127.117243,카페
678,엑스포복아구전문점,둔산동,대전광역시 서구 둔산2동 1323,36.353779,127.381369,복어요리
679,예전칼국수,범어동,대구광역시 수성구 범어동 1-2,35.86683499999999,128.624133,
680,오케이치킨,보령,충청남도 보령시 성주면 성주리 199-11,36.336073,126.650309,"치킨,닭강정"
681,우돈한마당,용이동,경기도 평택시 용이동 600-1,36.998265,127.132317,
682,이장군족발,의정부,경기도 의정부시 금오동 384-9,37.748524,127.0536,"족발,보쌈"
683,제일장수촌,포승읍,경기도 평택시 포승읍 석정리 1116-9,36.986675,126.89073,
684,조개야,동래,부산광역시 동래구 명륜동 548-42,35.205555,129.079422,
685,참숯짝갈비,부평,인천광역시 부평구 부평동 146-5,37.496713,126.729656,"육류,고기요리"
